COSMOS 2251 DEB         
1 33805U 93036AW  17345.66879343  .00000142  00000-0  41324-4 0  9991
2 33805  74.0344  73.9295 0068292 272.3392  86.9951 14.52233164467548
